{"type": "FeatureCollection", "features": [ {"type": "Feature", "properties": {"norad_id": 45358, "name": "COSMOS 2545 (760)", "group": "glo-ops", "lat": -28.845462884528008, "lon": -56.66970102232363, "alt_km": 19127.380297763564, "timestamp": "2025-12-23T05:02:12.292016+00:00", "meta": {"OBJECT_NAME": "COSMOS 2545 (760)", "OBJECT_ID": "2020-018A", "EPOCH": "2025-12-22T07:31:25.141152", "MEAN_MOTION": 2.13102698, "ECCENTRICITY": 0.00113434, "INCLINATION": 64.464, "RA_OF_ASC_NODE": 318.6341, "ARG_OF_PERICENTER": 250.3607, "MEAN_ANOMALY": 109.513, "EPHEMERIS_TYPE": 0, "CLASSIFICATION_TYPE": "U", "NORAD_CAT_ID": 45358, "ELEMENT_SET_NO": 999, "REV_AT_EPOCH": 4489, "BSTAR": 0, "MEAN_MOTION_DOT": -4.2e-07, "MEAN_MOTION_DDOT": 0}, "tle": {"line1": "1 45358U 20018A   25356.31348543 -.00000042  00000+0  00000+0 0  9993", "line2": "2 45358  64.4640 318.6341 0011343 250.3607 109.5130  2.13102698 44898"}}, "geometry": {"type": "Point", "coordinates": [-56.66970102232363, -28.845462884528008]}}, {"type": "Feature", "properties": {"norad_id": 46805, "name": "COSMOS 2547 (705K)", "group": "glo-ops", "lat": -2.958116740579298, "lon": 19.759481386649, "alt_km": 19119.817575193487, "timestamp": "2025-12-23T05:02:12.292027+00:00", "meta": {"OBJECT_NAME": "COSMOS 2547 (705K)", "OBJECT_ID": "2020-075A", "EPOCH": "2025-12-22T00:46:38.571168", "MEAN_MOTION": 2.13100252, "ECCENTRICITY": 0.000611, "INCLINATION": 64.5967, "RA_OF_ASC_NODE": 198.3861, "ARG_OF_PERICENTER": 227.6651, "MEAN_ANOMALY": 132.3515, "EPHEMERIS_TYPE": 0, "CLASSIFICATION_TYPE": "U", "NORAD_CAT_ID": 46805, "ELEMENT_SET_NO": 999, "REV_AT_EPOCH": 4013, "BSTAR": 0, "MEAN_MOTION_DOT": 9.6e-07, "MEAN_MOTION_DDOT": 0}, "tle": {"line1": "1 46805U 20075A   25356.03239087  .00000096  00000+0  00000+0 0  9993", "line2": "2 46805  64.5967 198.3861 0006110 227.6651 132.3515  2.13100252 40139"}}, "geometry": {"type": "Point", "coordinates": [19.759481386649, -2.958116740579298]}}, {"type": "Feature", "properties": {"norad_id": 52984, "name": "COSMOS 2557 (706K)", "group": "glo-ops", "lat": 48.78952526924914, "lon": -6.17279007629964, "alt_km": 19150.0104896106, "timestamp": "2025-12-23T05:02:12.292039+00:00", "meta": {"OBJECT_NAME": "COSMOS 2557 (706K)", "OBJECT_ID": "2022-075A", "EPOCH": "2025-12-22T04:44:33.439200", "MEAN_MOTION": 2.13102045, "ECCENTRICITY": 0.00135379, "INCLINATION": 64.4045, "RA_OF_ASC_NODE": 320.7192, "ARG_OF_PERICENTER": 278.4147, "MEAN_ANOMALY": 81.4275, "EPHEMERIS_TYPE": 0, "CLASSIFICATION_TYPE": "U", "NORAD_CAT_ID": 52984, "ELEMENT_SET_NO": 999, "REV_AT_EPOCH": 2694, "BSTAR": 0, "MEAN_MOTION_DOT": -4.3e-07, "MEAN_MOTION_DDOT": 0}, "tle": {"line1": "1 52984U 22075A   25356.19760925 -.00000043  00000+0  00000+0 0  9990", "line2": "2 52984  64.4045 320.7192 0013537 278.4147  81.4275  2.13102045 26945"}}, "geometry": {"type": "Point", "coordinates": [-6.17279007629964, 48.78952526924914]}}, {"type": "Feature", "properties": {"norad_id": 54031, "name": "COSMOS 2559 (707K)", "group": "glo-ops", "lat": -13.76611890125265, "lon": 147.50411732426184, "alt_km": 19102.890644353683, "timestamp": "2025-12-23T05:02:12.292050+00:00", "meta": {"OBJECT_NAME": "COSMOS 2559 (707K)", "OBJECT_ID": "2022-130A", "EPOCH": "2025-12-22T11:39:56.948256", "MEAN_MOTION": 2.13101308, "ECCENTRICITY": 0.0011535, "INCLINATION": 64.3767, "RA_OF_ASC_NODE": 320.7983, "ARG_OF_PERICENTER": 191.7961, "MEAN_ANOMALY": 168.1737, "EPHEMERIS_TYPE": 0, "CLASSIFICATION_TYPE": "U", "NORAD_CAT_ID": 54031, "ELEMENT_SET_NO": 999, "REV_AT_EPOCH": 2492, "BSTAR": 0, "MEAN_MOTION_DOT": -4.2e-07, "MEAN_MOTION_DDOT": 0}, "tle": {"line1": "1 54031U 22130A   25356.48607579 -.00000042  00000+0  00000+0 0  9993", "line2": "2 54031  64.3767 320.7983 0011535 191.7961 168.1737  2.13101308 24928"}}, "geometry": {"type": "Point", "coordinates": [147.50411732426184, -13.76611890125265]}}, {"type": "Feature", "properties": {"norad_id": 54377, "name": "COSMOS 2564 (761)", "group": "glo-ops", "lat": -39.83187820896285, "lon": 175.3477953978032, "alt_km": 19142.72893593178, "timestamp": "2025-12-23T05:02:12.292061+00:00", "meta": {"OBJECT_NAME": "COSMOS 2564 (761)", "OBJECT_ID": "2022-161A", "EPOCH": "2025-12-22T07:55:31.540224", "MEAN_MOTION": 2.13102045, "ECCENTRICITY": 0.00085467, "INCLINATION": 64.7388, "RA_OF_ASC_NODE": 198.5803, "ARG_OF_PERICENTER": 203.7218, "MEAN_ANOMALY": 156.3061, "EPHEMERIS_TYPE": 0, "CLASSIFICATION_TYPE": "U", "NORAD_CAT_ID": 54377, "ELEMENT_SET_NO": 999, "REV_AT_EPOCH": 2386, "BSTAR": 0, "MEAN_MOTION_DOT": 9.5e-07, "MEAN_MOTION_DDOT": 0}, "tle": {"line1": "1 54377U 22161A   25356.33022616  .00000095  00000+0  00000+0 0  9994", "line2": "2 54377  64.7388 198.5803 0008546 203.7218 156.3061  2.13102045 23863"}}, "geometry": {"type": "Point", "coordinates": [175.3477953978032, -39.83187820896285]}}, {"type": "Feature", "properties": {"norad_id": 57517, "name": "COSMOS 2569 (703K)", "group": "glo-ops", "lat": -48.42038448748152, "lon": 47.22092964966761, "alt_km": 19109.01356440289, "timestamp": "2025-12-23T05:02:12.292077+00:00", "meta": {"OBJECT_NAME": "COSMOS 2569 (703K)", "OBJECT_ID": "2023-114A", "EPOCH": "2025-12-22T08:14:44.480832", "MEAN_MOTION": 2.13104025, "ECCENTRICITY": 0.00108594, "INCLINATION": 65.199, "RA_OF_ASC_NODE": 78.589, "ARG_OF_PERICENTER": 287.0596, "MEAN_ANOMALY": 72.8655, "EPHEMERIS_TYPE": 0, "CLASSIFICATION_TYPE": "U", "NORAD_CAT_ID": 57517, "ELEMENT_SET_NO": 999, "REV_AT_EPOCH": 1849, "BSTAR": 0, "MEAN_MOTION_DOT": -3e-08, "MEAN_MOTION_DDOT": 0}, "tle": {"line1": "1 57517U 23114A   25356.34357038 -.00000003  00000+0  00000+0 0  9992", "line2": "2 57517  65.1990  78.5890 0010859 287.0596  72.8655  2.13104025 18497"}}, "geometry": {"type": "Point", "coordinates": [47.22092964966761, -48.42038448748152]}}, {"type": "Feature", "properties": {"norad_id": 63130, "name": "COSMOS 2584 (704K)", "group": "glo-ops", "lat": 28.28686647990299, "lon": 93.33455773762842, "alt_km": 19146.216524330044, "timestamp": "2025-12-23T05:02:12.292088+00:00", "meta": {"OBJECT_NAME": "COSMOS 2584 (704K)", "OBJECT_ID": "2025-042A", "EPOCH": "2025-12-22T05:31:29.288640", "MEAN_MOTION": 2.1310305, "ECCENTRICITY": 0.00077501, "INCLINATION": 64.9809, "RA_OF_ASC_NODE": 78.8228, "ARG_OF_PERICENTER": 219.7586, "MEAN_ANOMALY": 140.2275, "EPHEMERIS_TYPE": 0, "CLASSIFICATION_TYPE": "U", "NORAD_CAT_ID": 63130, "ELEMENT_SET_NO": 999, "REV_AT_EPOCH": 627, "BSTAR": 0, "MEAN_MOTION_DOT": -4e-08, "MEAN_MOTION_DDOT": 0}, "tle": {"line1": "1 63130U 25042A   25356.23020010 -.00000004  00000+0  00000+0 0  9998", "line2": "2 63130  64.9809  78.8228 0007750 219.7586 140.2275  2.13103050  6274"}}, "geometry": {"type": "Point", "coordinates": [93.33455773762842, 28.28686647990299]}}, {"type": "Feature", "properties": {"norad_id": 65590, "name": "COSMOS 2596 (708K)", "group": "glo-ops", "lat": 26.94774378295931, "lon": 127.21458022108705, "alt_km": 19160.215978454387, "timestamp": "2025-12-23T05:02:12.292100+00:00", "meta": {"OBJECT_NAME": "COSMOS 2596 (708K)", "OBJECT_ID": "2025-206B", "EPOCH": "2025-12-22T03:59:43.719936", "MEAN_MOTION": 2.1310041, "ECCENTRICITY": 0.00140887, "INCLINATION": 64.7392, "RA_OF_ASC_NODE": 321.1476, "ARG_OF_PERICENTER": 307.2643, "MEAN_ANOMALY": 122.2256, "EPHEMERIS_TYPE": 0, "CLASSIFICATION_TYPE": "U", "NORAD_CAT_ID": 65590, "ELEMENT_SET_NO": 999, "REV_AT_EPOCH": 214, "BSTAR": 0, "MEAN_MOTION_DOT": -4.3e-07, "MEAN_MOTION_DDOT": 0}, "tle": {"line1": "1 65590U 25206B   25356.16647824 -.00000043  00000+0  00000+0 0  9995", "line2": "2 65590  64.7392 321.1476 0014088 307.2643 122.2256  2.13100410  2147"}}, "geometry": {"type": "Point", "coordinates": [127.21458022108705, 26.94774378295931]}}]}